[{"OBJECT_NAME":"ASTROCAST-0401","OBJECT_ID":"2023-001DF","EPOCH":"2026-03-09T17:04:53.382144","MEAN_MOTION":15.26258462,"ECCENTRICITY":0.00081423,"INCLINATION":97.5547,"RA_OF_ASC_NODE":160.5206,"ARG_OF_PERICENTER":188.4231,"MEAN_ANOMALY":171.6872,"EPHEMERIS_TYPE":0,"CLASSIFICATION_TYPE":"U","NORAD_CAT_ID":55110,"ELEMENT_SET_NO":999,"REV_AT_EPOCH":17602,"BSTAR":0.00037868349,"MEAN_MOTION_DOT":9.75e-5,"MEAN_MOTION_DDOT":0},{"OBJECT_NAME":"STARLINK-31877","OBJECT_ID":"2024-084X","EPOCH":"2026-03-09T23:07:23.459808","MEAN_MOTION":15.27544433,"ECCENTRICITY":0.00023288,"INCLINATION":43.0101,"RA_OF_ASC_NODE":40.3652,"ARG_OF_PERICENTER":279.6008,"MEAN_ANOMALY":80.4581,"EPHEMERIS_TYPE":0,"CLASSIFICATION_TYPE":"U","NORAD_CAT_ID":59675,"ELEMENT_SET_NO":999,"REV_AT_EPOCH":10441,"BSTAR":-3.0444489e-5,"MEAN_MOTION_DOT":-1.099e-5,"MEAN_MOTION_DDOT":0}]
